{
  "type": "FeatureCollection",
  "features": [
    {
      "type": "Feature",
      "properties": {
        "norad_id": 33860,
        "name": "IRIDIUM 33 DEB",
        "group": "iridium-33-debris",
        "lat": 11.82856942304144,
        "lon": -159.26088381453542,
        "alt_km": 673.6419506170469,
        "timestamp": "2025-12-25T16:53:15.048562+00:00",
        "meta_object_name": "IRIDIUM 33 DEB",
        "meta_object_id": "1997-051AD",
        "meta_epoch": "2025-12-25T01:40:13.916928",
        "meta_mean_motion": 14.67512307,
        "meta_eccentricity": 0.00060597,
        "meta_inclination": 86.3823,
        "meta_ra_of_asc_node": 21.779,
        "meta_arg_of_pericenter": 309.0617,
        "meta_mean_anomaly": 111.5218,
        "meta_ephemeris_type": 0,
        "meta_classification_type": "U",
        "meta_norad_cat_id": 33860,
        "meta_element_set_no": 999,
        "meta_rev_at_epoch": 88903,
        "meta_bstar": 0.0011962769,
        "meta_mean_motion_dot": 6.804e-05,
        "meta_mean_motion_ddot": 0,
        "tle_line1": "1 33860U 97051AD  25359.06960552  .00006804  00000+0  11963-2 0  9998",
        "tle_line2": "2 33860  86.3823  21.7790 0006059 309.0617 111.5218 14.67512307889037"
      },
      "geometry": {
        "type": "Point",
        "coordinates": [
          -159.26088381453542,
          11.82856942304144
        ]
      }
    },
    {
      "type": "Feature",
      "properties": {
        "norad_id": 33862,
        "name": "IRIDIUM 33 DEB",
        "group": "iridium-33-debris",
        "lat": -57.76613762781734,
        "lon": 26.09510629772527,
        "alt_km": 664.8808373148977,
        "timestamp": "2025-12-25T16:53:15.048574+00:00",
        "meta_object_name": "IRIDIUM 33 DEB",
        "meta_object_id": "1997-051AF",
        "meta_epoch": "2025-12-25T02:40:57.384192",
        "meta_mean_motion": 14.69670864,
        "meta_eccentricity": 0.00520966,
        "meta_inclination": 86.4081,
        "meta_ra_of_asc_node": 32.0733,
        "meta_arg_of_pericenter": 27.5778,
        "meta_mean_anomaly": 25.6917,
        "meta_ephemeris_type": 0,
        "meta_classification_type": "U",
        "meta_norad_cat_id": 33862,
        "meta_element_set_no": 999,
        "meta_rev_at_epoch": 89005,
        "meta_bstar": 0.0015857546,
        "meta_mean_motion_dot": 9.663e-05,
        "meta_mean_motion_ddot": 0,
        "tle_line1": "1 33862U 97051AF  25359.11177528  .00009663  00000+0  15858-2 0  9992",
        "tle_line2": "2 33862  86.4081  32.0733 0052096  27.5778  25.6917 14.69670864890050"
      },
      "geometry": {
        "type": "Point",
        "coordinates": [
          26.09510629772527,
          -57.76613762781734
        ]
      }
    },
    {
      "type": "Feature",
      "properties": {
        "norad_id": 33866,
        "name": "IRIDIUM 33 DEB",
        "group": "iridium-33-debris",
        "lat": 75.40598520373082,
        "lon": -106.84079232564041,
        "alt_km": 720.7298667998257,
        "timestamp": "2025-12-25T16:53:15.048586+00:00",
        "meta_object_name": "IRIDIUM 33 DEB",
        "meta_object_id": "1997-051AK",
        "meta_epoch": "2025-12-25T00:08:02.252832",
        "meta_mean_motion": 14.25311588,
        "meta_eccentricity": 0.01152694,
        "meta_inclination": 86.2996,
        "meta_ra_of_asc_node": 87.8465,
        "meta_arg_of_pericenter": 122.5126,
        "meta_mean_anomaly": 2.3376,
        "meta_ephemeris_type": 0,
        "meta_classification_type": "U",
        "meta_norad_cat_id": 33866,
        "meta_element_set_no": 999,
        "meta_rev_at_epoch": 86985,
        "meta_bstar": 0.00058593776,
        "meta_mean_motion_dot": 1.498e-05,
        "meta_mean_motion_ddot": 0,
        "tle_line1": "1 33866U 97051AK  25359.00558163  .00001498  00000+0  58594-3 0  9995",
        "tle_line2": "2 33866  86.2996  87.8465 0115269 122.5126   2.3376 14.25311588869854"
      },
      "geometry": {
        "type": "Point",
        "coordinates": [
          -106.84079232564041,
          75.40598520373082
        ]
      }
    },
    {
      "type": "Feature",
      "properties": {
        "norad_id": 33870,
        "name": "IRIDIUM 33 DEB",
        "group": "iridium-33-debris",
        "lat": 81.5973934602321,
        "lon": 78.13095818517176,
        "alt_km": 722.2896926436079,
        "timestamp": "2025-12-25T16:53:15.048597+00:00",
        "meta_object_name": "IRIDIUM 33 DEB",
        "meta_object_id": "1997-051AP",
        "meta_epoch": "2025-12-25T05:11:01.966272",
        "meta_mean_motion": 14.45911631,
        "meta_eccentricity": 0.00226539,
        "meta_inclination": 86.3733,
        "meta_ra_of_asc_node": 52.9124,
        "meta_arg_of_pericenter": 138.5968,
        "meta_mean_anomaly": 287.3012,
        "meta_ephemeris_type": 0,
        "meta_classification_type": "U",
        "meta_norad_cat_id": 33870,
        "meta_element_set_no": 999,
        "meta_rev_at_epoch": 88317,
        "meta_bstar": 0.00070586074,
        "meta_mean_motion_dot": 2.536e-05,
        "meta_mean_motion_ddot": 0,
        "tle_line1": "1 33870U 97051AP  25359.21599498  .00002536  00000+0  70586-3 0  9998",
        "tle_line2": "2 33870  86.3733  52.9124 0022653 138.5968 287.3012 14.45911631883179"
      },
      "geometry": {
        "type": "Point",
        "coordinates": [
          78.13095818517176,
          81.5973934602321
        ]
      }
    },
    {
      "type": "Feature",
      "properties": {
        "norad_id": 33881,
        "name": "IRIDIUM 33 DEB",
        "group": "iridium-33-debris",
        "lat": 84.6488644135319,
        "lon": -121.32804874683943,
        "alt_km": 662.1917612452253,
        "timestamp": "2025-12-25T16:53:15.048607+00:00",
        "meta_object_name": "IRIDIUM 33 DEB",
        "meta_object_id": "1997-051BA",
        "meta_epoch": "2025-12-24T19:37:00.349824",
        "meta_mean_motion": 14.5678795,
        "meta_eccentricity": 0.00611156,
        "meta_inclination": 86.3859,
        "meta_ra_of_asc_node": 101.4931,
        "meta_arg_of_pericenter": 135.6602,
        "meta_mean_anomaly": 353.6404,
        "meta_ephemeris_type": 0,
        "meta_classification_type": "U",
        "meta_norad_cat_id": 33881,
        "meta_element_set_no": 999,
        "meta_rev_at_epoch": 87676,
        "meta_bstar": 0.0022055938,
        "meta_mean_motion_dot": 0.0001015,
        "meta_mean_motion_ddot": 0,
        "tle_line1": "1 33881U 97051BA  25358.81736516  .00010150  00000+0  22056-2 0  9998",
        "tle_line2": "2 33881  86.3859 101.4931 0061115 135.6602 353.6404 14.56787950876761"
      },
      "geometry": {
        "type": "Point",
        "coordinates": [
          -121.32804874683943,
          84.6488644135319
        ]
      }
    },
    {
      "type": "Feature",
      "properties": {
        "norad_id": 33884,
        "name": "IRIDIUM 33 DEB",
        "group": "iridium-33-debris",
        "lat": -66.34811743164722,
        "lon": -4.370556887049478,
        "alt_km": 638.1902765439299,
        "timestamp": "2025-12-25T16:53:15.048618+00:00",
        "meta_object_name": "IRIDIUM 33 DEB",
        "meta_object_id": "1997-051BD",
        "meta_epoch": "2025-12-25T01:10:47.472384",
        "meta_mean_motion": 14.77671167,
        "meta_eccentricity": 0.00088209,
        "meta_inclination": 86.3695,
        "meta_ra_of_asc_node": 4.2604,
        "meta_arg_of_pericenter": 274.8294,
        "meta_mean_anomaly": 139.2318,
        "meta_ephemeris_type": 0,
        "meta_classification_type": "U",
        "meta_norad_cat_id": 33884,
        "meta_element_set_no": 999,
        "meta_rev_at_epoch": 89029,
        "meta_bstar": 0.0016802429,
        "meta_mean_motion_dot": 0.00012067,
        "meta_mean_motion_ddot": 0,
        "tle_line1": "1 33884U 97051BD  25359.04916056  .00012067  00000+0  16802-2 0  9997",
        "tle_line2": "2 33884  86.3695   4.2604 0008820 274.8294 139.2318 14.77671167890297"
      },
      "geometry": {
        "type": "Point",
        "coordinates": [
          -4.370556887049478,
          -66.34811743164722
        ]
      }
    },
    {
      "type": "Feature",
      "properties": {
        "norad_id": 33886,
        "name": "IRIDIUM 33 DEB",
        "group": "iridium-33-debris",
        "lat": 84.08273389563209,
        "lon": 99.39583039971964,
        "alt_km": 767.4675262007777,
        "timestamp": "2025-12-25T16:53:15.048629+00:00",
        "meta_object_name": "IRIDIUM 33 DEB",
        "meta_object_id": "1997-051BF",
        "meta_epoch": "2025-12-25T03:12:23.130720",
        "meta_mean_motion": 14.36065835,
        "meta_eccentricity": 0.00134898,
        "meta_inclination": 86.3819,
        "meta_ra_of_asc_node": 62.0117,
        "meta_arg_of_pericenter": 197.7345,
        "meta_mean_anomaly": 182.5588,
        "meta_ephemeris_type": 0,
        "meta_classification_type": "U",
        "meta_norad_cat_id": 33886,
        "meta_element_set_no": 999,
        "meta_rev_at_epoch": 88230,
        "meta_bstar": 0.00018625376,
        "meta_mean_motion_dot": 5.62e-06,
        "meta_mean_motion_ddot": 0,
        "tle_line1": "1 33886U 97051BF  25359.13360105  .00000562  00000+0  18625-3 0  9990",
        "tle_line2": "2 33886  86.3819  62.0117 0013489 197.7345 182.5588 14.36065835882302"
      },
      "geometry": {
        "type": "Point",
        "coordinates": [
          99.39583039971964,
          84.08273389563209
        ]
      }
    }
  ]
}